NORAD_CAT_ID,OBJECT_NAME,OBJECT_TYPE,EPOCH,MEAN_MOTION,ECCENTRICITY,INCLINATION,RA_OF_ASC_NODE,ARG_OF_PERICENTER,MEAN_ANOMALY,BSTAR,MEAN_MOTION_DOT,MEAN_MOTION_DDOT,TLE_LINE0,TLE_LINE1,TLE_LINE2,SEMIMAJOR_AXIS,PERIOD,APOGEE,PERIGEE,DECAYED
53818.0,STARLINK-4749,PAYLOAD,2022-11-07 22:00:00,15.45825776,0.0001733,53.2176,13.1342,37.7968,94.7116,-0.025345,-0.01142288,0.0,0 STARLINK-4749,1 53818U 22114A   22311.91667824 -.01142288  00000-0 -25345-1 0  9995,2 53818  53.2176  13.1342 0001733  37.7968  94.7116 15.45825776  1301,6807.09,93.154,430.134,427.775,0.0
53818.0,STARLINK-4749,PAYLOAD,2022-11-08 10:00:01,15.44606255,0.0001801,53.2175,10.7624,31.0663,4.4472,-0.026477,-0.01144093,0.0,0 STARLINK-4749,1 53818U 22114A   22312.41668981 -.01144093  00000-0 -26477-1 0  9999,2 53818  53.2175  10.7624 0001801  31.0663   4.4472 15.44606255  8499,6810.672,93.228,433.764,431.311,0.0
53818.0,STARLINK-4749,PAYLOAD,2022-11-08 14:00:01,15.44218748,0.0001801,53.2173,9.9734,42.3897,200.2068,-0.027451,-0.01168267,0.0,0 STARLINK-4749,1 53818U 22114A   22312.58334491 -.01168267  00000-0 -27451-1 0  9995,2 53818  53.2173   9.9734 0001801  42.3897 200.2068 15.44218748  1309,6811.812,93.251,434.903,432.45,0.0
53818.0,STARLINK-4749,PAYLOAD,2022-11-08 22:00:00,15.43391686,0.000178,53.2173,8.3931,33.5082,262.6808,-0.027835,-0.01153077,0.0,0 STARLINK-4749,1 53818U 22114A   22312.91667824 -.01153077  00000-0 -27835-1 0  9990,2 53818  53.2173   8.3931 0001780  33.5082 262.6808 15.43391686  1301,6814.245,93.301,437.323,434.897,0.0
53818.0,STARLINK-4749,PAYLOAD,2022-11-09 06:00:00,15.42444105,0.0001477,53.217,6.8161,37.6307,311.2319,-0.023866,-0.0095925,0.0,0 STARLINK-4749,1 53818U 22114A   22313.25001157 -.00959250  00000-0 -23866-1 0  9995,2 53818  53.2170   6.8161 0001477  37.6307 311.2319 15.42444105  8617,6817.035,93.358,439.907,437.894,0.0
53818.0,STARLINK-4749,PAYLOAD,2022-11-09 14:00:01,15.4178232,0.0001692,53.217,5.2438,36.204,4.2058,-0.029967,-0.01173665,0.0,0 STARLINK-4749,1 53818U 22114A   22313.58334491 -.01173665  00000-0 -29967-1 0  9998,2 53818  53.2170   5.2438 0001692  36.2040   4.2058 15.41782320  1306,6818.986,93.398,442.005,439.697,0.0
53818.0,STARLINK-4749,PAYLOAD,2022-11-09 22:00:01,15.40940091,0.0001818,53.2173,3.6691,32.7176,58.4231,-0.02978,-0.01137264,0.0,0 STARLINK-4749,1 53818U 22114A   22313.91668981 -.01137264  00000-0 -29780-1 0  9997,2 53818  53.2173   3.6691 0001818  32.7176  58.4231 15.40940091  8720,6821.47,93.449,444.576,442.095,0.0
53818.0,STARLINK-4749,PAYLOAD,2022-11-10 14:00:01,15.39333057,0.0001842,53.217,0.5315,38.4663,150.9642,-0.032199,-0.01163211,0.0,0 STARLINK-4749,1 53818U 22114A   22314.58334491 -.01163211  00000-0 -32199-1 0  9996,2 53818  53.2170   0.5315 0001842  38.4663 150.9642 15.39333057  1304,6826.217,93.547,449.34,446.825,0.0
53818.0,STARLINK-4749,PAYLOAD,2022-11-10 22:00:00,15.38502872,0.0001852,53.2173,358.9627,34.6703,202.486,-0.032417,-0.01141488,0.0,0 STARLINK-4749,1 53818U 22114A   22314.91667824 -.01141488  00000-0 -32417-1 0  9997,2 53818  53.2173 358.9627 0001852  34.6703 202.4860 15.38502872  8873,6828.6730000000025,93.597,451.802,449.273,0.0
53818.0,STARLINK-4749,PAYLOAD,2022-11-11 14:00:01,15.36892197,0.0001571,53.2169,355.8366,40.2112,289.4341,-0.034891,-0.01163374,0.0,0 STARLINK-4749,1 53818U 22114A   22315.58334491 -.01163374  00000-0 -34891-1 0  9998,2 53818  53.2169 355.8366 0001571  40.2112 289.4341 15.36892197  1309,6833.443,93.696,456.381,454.234,0.0
53818.0,STARLINK-4749,PAYLOAD,2022-11-11 22:00:00,15.36068899,0.0001614,53.2172,354.2737,34.6827,339.7516,-0.035442,-0.01151709,0.0,0 STARLINK-4749,1 53818U 22114A   22315.91667824 -.01151709  00000-0 -35442-1 0  9996,2 53818  53.2172 354.2737 0001614  34.6827 339.7516 15.36068899  9031,6835.884,93.746,458.853,456.646,0.0
53818.0,STARLINK-4749,PAYLOAD,2022-11-12 14:00:01,15.34489024,0.0001838,53.2169,351.1591,30.3468,70.6932,-0.039463,-0.01212687,0.0,0 STARLINK-4749,1 53818U 22114A   22316.58334491 -.01212687  00000-0 -39463-1 0  9991,2 53818  53.2169 351.1591 0001838  30.3468  70.6932 15.34489024  1303,6840.576,93.842,463.698,461.1830000000001,0.0
53818.0,STARLINK-4749,PAYLOAD,2022-11-12 22:00:00,15.33626072,0.0001847,53.2173,349.6019,37.0792,105.8367,-0.038225,-0.01148781,0.0,0 STARLINK-4749,1 53818U 22114A   22316.91667824 -.01148781  00000-0 -38225-1 0  9995,2 53818  53.2173 349.6019 0001847  37.0792 105.8367 15.33626072  9181,6843.141,93.895,466.27,463.74300000000005,0.0
53818.0,STARLINK-4749,PAYLOAD,2022-11-13 14:00:01,15.32001118,0.0001813,53.217,346.4988,38.5714,185.1062,-0.04032,-0.01150723,0.0,0 STARLINK-4749,1 53818U 22114A   22317.58334491 -.01150723  00000-0 -40320-1 0  9998,2 53818  53.2170 346.4988 0001813  38.5714 185.1062 15.32001118  1307,6847.98,93.995,471.086,468.603,0.0
53818.0,STARLINK-4749,PAYLOAD,2022-11-13 22:00:00,15.31188704,0.0001852,53.2173,344.9475,34.6873,227.906,-0.041421,-0.01152193,0.0,0 STARLINK-4749,1 53818U 22114A   22317.91667824 -.01152193  00000-0 -41421-1 0  9990,2 53818  53.2173 344.9475 0001852  34.6873 227.9060 15.31188704  1309,6850.401999999999,94.045,473.535,470.99800000000016,0.0
53818.0,STARLINK-4749,PAYLOAD,2022-11-14 14:00:01,15.29550044,0.0001921,53.2173,341.8556,27.7496,309.746,-0.042969,-0.01137114,0.0,0 STARLINK-4749,1 53818U 22114A   22318.58334491 -.01137114  00000-0 -42969-1 0  9999,2 53818  53.2173 341.8556 0001921  27.7496 309.7460 15.29550044  1306,6855.293000000002,94.145,478.475,475.842,0.0
53818.0,STARLINK-4749,PAYLOAD,2022-11-14 22:00:00,15.28733475,0.0001855,53.2173,340.31,28.3743,345.1059,-0.043923,-0.01133645,0.0,0 STARLINK-4749,1 53818U 22114A   22318.91667824 -.01133645  00000-0 -43923-1 0  9991,2 53818  53.2173 340.3100 0001855  28.3743 345.1059 15.28733475  1301,6857.734,94.196,480.871,478.327,0.0
53818.0,STARLINK-4749,PAYLOAD,2022-11-15 02:00:01,15.28328178,0.0001915,53.2176,339.5391,37.8396,173.2636,-0.044536,-0.01135062,0.0,0 STARLINK-4749,1 53818U 22114A   22319.08334491 -.01135062  00000-0 -44536-1 0  9997,2 53818  53.2176 339.5391 0001915  37.8396 173.2636 15.28328178  9514,6858.946999999999,94.221,482.125,479.49800000000016,0.0
53818.0,STARLINK-4749,PAYLOAD,2022-11-15 14:00:01,15.27107387,0.0001646,53.2172,337.2299,40.6213,41.8872,-0.046216,-0.01134531,0.0,0 STARLINK-4749,1 53818U 22114A   22319.58334491 -.01134531  00000-0 -46216-1 0  9999,2 53818  53.2172 337.2299 0001646  40.6213  41.8872 15.27107387  1300,6862.602,94.296,485.596,483.337,0.0
53818.0,STARLINK-4749,PAYLOAD,2022-11-15 22:00:00,15.26293483,0.0001605,53.2174,335.6902,45.6061,69.9522,-0.04742,-0.01135438,0.0,0 STARLINK-4749,1 53818U 22114A   22319.91667824 -.01135438  00000-0 -47420-1 0  9990,2 53818  53.2174 335.6902 0001605  45.6061  69.9522 15.26293483  1301,6865.041,94.346,488.008,485.804,0.0
53818.0,STARLINK-4749,PAYLOAD,2022-11-16 00:00:00,15.26090914,0.0001605,53.2174,335.3059,53.3304,160.3368,-0.04776,-0.01136456,0.0,0 STARLINK-4749,1 53818U 22114A   22320.00001157 -.01136456  00000-0 -47760-1 0  9991,2 53818  53.2174 335.3059 0001605  53.3304 160.3368 15.26090914  9651,6865.649,94.359,488.616,486.412,0.0
53818.0,STARLINK-4749,PAYLOAD,2022-11-16 14:00:01,15.24666302,0.0001717,53.2173,332.6214,46.5472,132.2366,-0.049792,-0.0115011,0.0,0 STARLINK-4749,1 53818U 22114A   22320.58335648 -.01150110  00000-0 -49792-1 0  9999,2 53818  53.2173 332.6214 0001717  46.5472 132.2366 15.24666302  1305,6869.925,94.447,492.969,490.61,0.0
53818.0,STARLINK-4749,PAYLOAD,2022-11-16 20:00:01,15.24054609,0.0001611,53.2175,331.4707,45.152,66.2475,-0.050628,-0.01148246,0.0,0 STARLINK-4749,1 53818U 22114A   22320.83334491 -.01148246  00000-0 -50628-1 0  9999,2 53818  53.2175 331.4707 0001611  45.1520  66.2475 15.24054609  9781,6871.763000000001,94.485,494.735,492.521,0.0
53818.0,STARLINK-4749,PAYLOAD,2022-11-16 22:00:08,15.23852079,0.0001605,53.2173,331.0871,51.9435,157.3375,-0.05103,-0.01150195,0.0,0 STARLINK-4749,1 53818U 22114A   22320.91675926 -.01150195  00000-0 -51030-1 0  9993,2 53818  53.2173 331.0871 0001605  51.9435 157.3375 15.23852079  1307,6872.371999999999,94.497,495.34,493.134,0.0
53818.0,STARLINK-4749,PAYLOAD,2022-11-17 14:00:01,15.22243705,0.0001696,53.2165,328.0304,41.7342,224.3879,-0.054864,-0.01176498,0.0,0 STARLINK-4749,1 53818U 22114A   22321.58334491 -.01176498  00000-0 -54864-1 0  9998,2 53818  53.2165 328.0304 0001696  41.7342 224.3879 15.22243705  1302,6877.212,94.597,500.24300000000005,497.91,0.0
53818.0,STARLINK-4749,PAYLOAD,2022-11-17 22:00:00,15.21415466,0.0001817,53.2167,326.5024,33.8487,259.4618,-0.055113,-0.01155008,0.0,0 STARLINK-4749,1 53818U 22114A   22321.91667824 -.01155008  00000-0 -55113-1 0  9996,2 53818  53.2167 326.5024 0001817  33.8487 259.4618 15.21415466  1307,6879.706999999999,94.649,502.822,500.322,0.0
53818.0,STARLINK-4749,PAYLOAD,2022-11-18 14:00:01,15.19806043,0.0001713,53.2162,323.4563,35.7222,309.0081,-0.059187,-0.01180833,0.0,0 STARLINK-4749,1 53818U 22114A   22322.58334491 -.01180833  00000-0 -59187-1 0  9990,2 53818  53.2162 323.4563 0001713  35.7222 309.0081 15.19806043  1307,6884.563,94.749,507.608,505.249,0.0
53818.0,STARLINK-4749,PAYLOAD,2022-11-18 22:00:00,15.18983568,0.0001889,53.2166,321.9341,29.6219,339.3607,-0.059904,-0.01167904,0.0,0 STARLINK-4749,1 53818U 22114A   22322.91667824 -.01167904  00000-0 -59904-1 0  9997,2 53818  53.2166 321.9341 0001889  29.6219 339.3607 15.18983568 10105,6887.0480000000025,94.8,510.214,507.612,0.0
53818.0,STARLINK-4749,PAYLOAD,2022-11-19 14:00:01,15.17249552,0.0001832,53.2163,318.8992,36.6243,17.9728,-0.054509,-0.01009191,0.0,0 STARLINK-4749,1 53818U 22114A   22323.58334491 -.01009191  00000-0 -54509-1 0  9991,2 53818  53.2163 318.8992 0001832  36.6243  17.9728 15.17249552  1304,6892.295,94.909,515.422,512.8969999999998,0.0
